start=new Date('2021-09-05T00:00:00.000Z').valueOf();
sats=[{"OBJECT_TYPE":"PAYLOAD","SITE":"AFETR","INCLINATION":"53.0549","PERIOD":"95.592","APOAPSIS":"548.434","DECAY_DATE":null,"RCS_SIZE":"LARGE","CLASSIFICATION_TYPE":"U","MEAN_ANOMALY":"291.4887","EPHEMERIS_TYPE":"0","COUNTRY_CODE":"US","SEMIMAJOR_AXIS":"6925.332","OBJECT_NAME":"STARLINK-1593","NORAD_CAT_ID":"46119","TLE_LINE1":"1 46119U 20057C   21247.08916726 -.00000594  00000-0 -20980-4 0  9993","MEAN_MOTION_DDOT":"0.0000000000000","GP_ID":"184077570","ELEMENT_SET_NO":"999","FILE":"3108585","OBJECT_ID":"2020-057C","EPOCH":"2021-09-04T02:08:24.051264","MEAN_MOTION":"15.06405249","LAUNCH_DATE":"2020-08-18","PERIAPSIS":"545.961","ECCENTRICITY":"0.00017860","MEAN_MOTION_DOT":"-0.00000594","BSTAR":"-0.00002098000000","RA_OF_ASC_NODE":"152.9904","TLE_LINE2":"2 46119  53.0549 152.9904 0001786  68.6292 291.4887 15.06405249 58990","REV_AT_EPOCH":"5899","MEAN_ELEMENT_THEORY":"SGP4","TIME_SYSTEM":"UTC","CENTER_NAME":"EARTH","ARG_OF_PERICENTER":"68.6292","REF_FRAME":"TEME"},{"OBJECT_TYPE":"PAYLOAD","INCLINATION":"53.0543","SITE":"AFETR","CLASSIFICATION_TYPE":"U","RCS_SIZE":"LARGE","DECAY_DATE":null,"APOAPSIS":"548.522","PERIOD":"95.592","MEAN_ANOMALY":"304.8232","OBJECT_NAME":"STARLINK-1601","SEMIMAJOR_AXIS":"6925.359","COUNTRY_CODE":"US","EPHEMERIS_TYPE":"0","NORAD_CAT_ID":"46120","MEAN_MOTION_DDOT":"0.0000000000000","GP_ID":"184078823","TLE_LINE1":"1 46120U 20057D   21247.47249248  .00001498  00000-0  11947-3 0  9990","ELEMENT_SET_NO":"999","MEAN_MOTION":"15.06396732","EPOCH":"2021-09-04T11:20:23.350272","OBJECT_ID":"2020-057D","FILE":"3108585","ECCENTRICITY":"0.00018750","MEAN_MOTION_DOT":"0.00001498","PERIAPSIS":"545.925","LAUNCH_DATE":"2020-08-18","MEAN_ELEMENT_THEORY":"SGP4","REV_AT_EPOCH":"5907","TLE_LINE2":"2 46120  53.0543 151.2700 0001875  55.2934 304.8232 15.06396732 59075","RA_OF_ASC_NODE":"151.2700","BSTAR":"0.00011947000000","TIME_SYSTEM":"UTC","REF_FRAME":"TEME","ARG_OF_PERICENTER":"55.2934","CENTER_NAME":"EARTH"},{"ELEMENT_SET_NO":"999","MEAN_MOTION_DDOT":"0.0000000000000","GP_ID":"184079072","TLE_LINE1":"1 46121U 20057E   21247.10944563 -.00000476  00000-0 -13044-4 0  9991","EPOCH":"2021-09-04T02:37:36.102432","MEAN_MOTION":"15.06400072","OBJECT_ID":"2020-057E","FILE":"3108585","REV_AT_EPOCH":"5801","MEAN_ELEMENT_THEORY":"SGP4","TLE_LINE2":"2 46121  53.0543 132.9005 0001535  67.2421 292.8730 15.06400072 58012","RA_OF_ASC_NODE":"132.9005","BSTAR":"-0.00001304400000","ECCENTRICITY":"0.00015350","MEAN_MOTION_DOT":"-0.00000476","PERIAPSIS":"546.150","LAUNCH_DATE":"2020-08-18","REF_FRAME":"TEME","ARG_OF_PERICENTER":"67.2421","CENTER_NAME":"EARTH","TIME_SYSTEM":"UTC","INCLINATION":"53.0543","SITE":"AFETR","OBJECT_TYPE":"PAYLOAD","CLASSIFICATION_TYPE":"U","DECAY_DATE":null,"RCS_SIZE":"LARGE","APOAPSIS":"548.276","PERIOD":"95.592","OBJECT_NAME":"STARLINK-1602","SEMIMAJOR_AXIS":"6925.348","EPHEMERIS_TYPE":"0","COUNTRY_CODE":"US","MEAN_ANOMALY":"292.8730","NORAD_CAT_ID":"46121"},{"REV_AT_EPOCH":"5963","MEAN_ELEMENT_THEORY":"SGP4","RA_OF_ASC_NODE":"110.4739","TLE_LINE2":"2 46122  53.0538 110.4739 0002064  70.3312 289.7899 15.06395427 59631","BSTAR":"-0.00004215400000","MEAN_MOTION_DOT":"-0.00000910","ECCENTRICITY":"0.00020640","PERIAPSIS":"545.798","LAUNCH_DATE":"2020-08-18","REF_FRAME":"TEME","ARG_OF_PERICENTER":"70.3312","CENTER_NAME":"EARTH","TIME_SYSTEM":"UTC","ELEMENT_SET_NO":"999","MEAN_MOTION_DDOT":"0.0000000000000","GP_ID":"184105775","TLE_LINE1":"1 46122U 20057F   21247.64942958 -.00000910  00000-0 -42154-4 0  9994","MEAN_MOTION":"15.06395427","EPOCH":"2021-09-04T15:35:10.715712","OBJECT_ID":"2020-057F","FILE":"3108751","OBJECT_NAME":"STARLINK-1604","SEMIMAJOR_AXIS":"6925.363","EPHEMERIS_TYPE":"0","COUNTRY_CODE":"US","MEAN_ANOMALY":"289.7899","NORAD_CAT_ID":"46122","INCLINATION":"53.0538","SITE":"AFETR","OBJECT_TYPE":"PAYLOAD","CLASSIFICATION_TYPE":"U","RCS_SIZE":"LARGE","DECAY_DATE":null,"APOAPSIS":"548.657","PERIOD":"95.592"},{"ELEMENT_SET_NO":"999","TLE_LINE1":"1 46123U 20057G   21247.90007574 -.00001049  00000-0 -51517-4 0  9997","GP_ID":"184105526","MEAN_MOTION_DDOT":"0.0000000000000","FILE":"3108751","EPOCH":"2021-09-04T21:36:06.543936","MEAN_MOTION":"15.06392917","OBJECT_ID":"2020-057G","BSTAR":"-0.00005151700000","MEAN_ELEMENT_THEORY":"SGP4","REV_AT_EPOCH":"5969","RA_OF_ASC_NODE":"109.3480","TLE_LINE2":"2 46123  53.0538 109.3480 0002077  80.4699 279.6524 15.06392917 59696","PERIAPSIS":"545.797","LAUNCH_DATE":"2020-08-18","MEAN_MOTION_DOT":"-0.00001049","ECCENTRICITY":"0.00020770","ARG_OF_PERICENTER":"80.4699","CENTER_NAME":"EARTH","REF_FRAME":"TEME","TIME_SYSTEM":"UTC","INCLINATION":"53.0538","SITE":"AFETR","OBJECT_TYPE":"PAYLOAD","APOAPSIS":"548.674","PERIOD":"95.593","CLASSIFICATION_TYPE":"U","RCS_SIZE":"LARGE","DECAY_DATE":null,"EPHEMERIS_TYPE":"0","COUNTRY_CODE":"US","OBJECT_NAME":"STARLINK-1605","SEMIMAJOR_AXIS":"6925.370","MEAN_ANOMALY":"279.6524","NORAD_CAT_ID":"46123"},{"TIME_SYSTEM":"UTC","CENTER_NAME":"EARTH","ARG_OF_PERICENTER":"67.8147","REF_FRAME":"TEME","PERIAPSIS":"545.685","LAUNCH_DATE":"2020-08-18","ECCENTRICITY":"0.00021750","MEAN_MOTION_DOT":"0.00001777","BSTAR":"0.00013817000000","TLE_LINE2":"2 46124  53.0548 112.8909 0002175  67.8147 292.3073 15.06407124 58304","RA_OF_ASC_NODE":"112.8909","MEAN_ELEMENT_THEORY":"SGP4","REV_AT_EPOCH":"5830","FILE":"3108585","OBJECT_ID":"2020-057H","MEAN_MOTION":"15.06407124","EPOCH":"2021-09-04T02:40:14.482272","TLE_LINE1":"1 46124U 20057H   21247.11127873  .00001777  00000-0  13817-3 0  9992","GP_ID":"184078323","MEAN_MOTION_DDOT":"0.0000000000000","ELEMENT_SET_NO":"999","NORAD_CAT_ID":"46124","MEAN_ANOMALY":"292.3073","EPHEMERIS_TYPE":"0","COUNTRY_CODE":"US","SEMIMAJOR_AXIS":"6925.327","OBJECT_NAME":"STARLINK-1614","PERIOD":"95.592","APOAPSIS":"548.698","RCS_SIZE":"LARGE","DECAY_DATE":null,"CLASSIFICATION_TYPE":"U","OBJECT_TYPE":"PAYLOAD","SITE":"AFETR","INCLINATION":"53.0548"},{"MEAN_MOTION":"15.06398665","EPOCH":"2021-09-04T16:33:33.538464","OBJECT_ID":"2020-057J","FILE":"3108751","GP_ID":"184105024","MEAN_MOTION_DDOT":"0.0000000000000","TLE_LINE1":"1 46125U 20057J   21247.68997151 -.00000753  00000-0 -31672-4 0  9994","ELEMENT_SET_NO":"999","TIME_SYSTEM":"UTC","REF_FRAME":"TEME","ARG_OF_PERICENTER":"65.1850","CENTER_NAME":"EARTH","ECCENTRICITY":"0.00019450","MEAN_MOTION_DOT":"-0.00000753","LAUNCH_DATE":"2020-08-18","PERIAPSIS":"545.871","MEAN_ELEMENT_THEORY":"SGP4","REV_AT_EPOCH":"5908","TLE_LINE2":"2 46125  53.0527 150.2947 0001945  65.1850 294.9341 15.06398665 59087","RA_OF_ASC_NODE":"150.2947","BSTAR":"-0.00003167200000","CLASSIFICATION_TYPE":"U","RCS_SIZE":"LARGE","DECAY_DATE":null,"APOAPSIS":"548.565","PERIOD":"95.592","OBJECT_TYPE":"PAYLOAD","INCLINATION":"53.0527","SITE":"AFETR","NORAD_CAT_ID":"46125","MEAN_ANOMALY":"294.9341","OBJECT_NAME":"STARLINK-1618","SEMIMAJOR_AXIS":"6925.353","EPHEMERIS_TYPE":"0","COUNTRY_CODE":"US"},{"ARG_OF_PERICENTER":"65.1920","CENTER_NAME":"EARTH","REF_FRAME":"TEME","TIME_SYSTEM":"UTC","BSTAR":"-0.00012923000000","MEAN_ELEMENT_THEORY":"SGP4","REV_AT_EPOCH":"5845","RA_OF_ASC_NODE":"151.1174","TLE_LINE2":"2 46126  53.0559 151.1174 0001696  65.1920 294.9245 15.06410426 58459","PERIAPSIS":"546.007","LAUNCH_DATE":"2020-08-18","MEAN_MOTION_DOT":"-0.00002207","ECCENTRICITY":"0.00016960","FILE":"3108611","EPOCH":"2021-09-04T11:09:47.490336","MEAN_MOTION":"15.06410426","OBJECT_ID":"2020-057K","ELEMENT_SET_NO":"999","TLE_LINE1":"1 46126U 20057K   21247.46513299 -.00002207  00000-0 -12923-3 0  9991","MEAN_MOTION_DDOT":"0.0000000000000","GP_ID":"184080444","NORAD_CAT_ID":"46126","EPHEMERIS_TYPE":"0","COUNTRY_CODE":"US","OBJECT_NAME":"STARLINK-1619","SEMIMAJOR_AXIS":"6925.317","MEAN_ANOMALY":"294.9245","APOAPSIS":"548.356","PERIOD":"95.591","CLASSIFICATION_TYPE":"U","DECAY_DATE":null,"RCS_SIZE":"LARGE","INCLINATION":"53.0559","SITE":"AFETR","OBJECT_TYPE":"PAYLOAD"},{"OBJECT_NAME":"STARLINK-1621","SEMIMAJOR_AXIS":"6925.326","EPHEMERIS_TYPE":"0","COUNTRY_CODE":"US","MEAN_ANOMALY":"287.8224","NORAD_CAT_ID":"46127","INCLINATION":"53.0557","SITE":"AFETR","OBJECT_TYPE":"PAYLOAD","CLASSIFICATION_TYPE":"U","DECAY_DATE":null,"RCS_SIZE":"LARGE","APOAPSIS":"548.554","PERIOD":"95.592","MEAN_ELEMENT_THEORY":"SGP4","REV_AT_EPOCH":"5810","TLE_LINE2":"2 46127  53.0557 130.1544 0001967  72.2979 287.8224 15.06407240 58100","RA_OF_ASC_NODE":"130.1544","BSTAR":"0.00008130500000","MEAN_MOTION_DOT":"0.00000930","ECCENTRICITY":"0.00019670","PERIAPSIS":"545.829","LAUNCH_DATE":"2020-08-18","REF_FRAME":"TEME","ARG_OF_PERICENTER":"72.2979","CENTER_NAME":"EARTH","TIME_SYSTEM":"UTC","ELEMENT_SET_NO":"999","GP_ID":"184106026","MEAN_MOTION_DDOT":"0.0000000000000","TLE_LINE1":"1 46127U 20057L   21247.72130776  .00000930  00000-0  81305-4 0  9996","MEAN_MOTION":"15.06407240","EPOCH":"2021-09-04T17:18:40.990464","OBJECT_ID":"2020-057L","FILE":"3108751"},{"TIME_SYSTEM":"UTC","REF_FRAME":"TEME","CENTER_NAME":"EARTH","ARG_OF_PERICENTER":"76.0213","MEAN_MOTION_DOT":"-0.00000864","ECCENTRICITY":"0.00021840","PERIAPSIS":"545.718","LAUNCH_DATE":"2020-08-18","TLE_LINE2":"2 46128  53.0544 111.8176 0002184  76.0213 284.1019 15.06394360 58334","RA_OF_ASC_NODE":"111.8176","REV_AT_EPOCH":"5833","MEAN_ELEMENT_THEORY":"SGP4","BSTAR":"-0.00003909800000","OBJECT_ID":"2020-057M","EPOCH":"2021-09-04T08:25:15.292416","MEAN_MOTION":"15.06394360","FILE":"3108585","MEAN_MOTION_DDOT":"0.0000000000000","GP_ID":"184078824","TLE_LINE1":"1 46128U 20057M   21247.35087144 -.00000864  00000-0 -39098-4 0  9996","ELEMENT_SET_NO":"999","NORAD_CAT_ID":"46128","MEAN_ANOMALY":"284.1019","SEMIMAJOR_AXIS":"6925.366","OBJECT_NAME":"STARLINK-1622","COUNTRY_CODE":"US","EPHEMERIS_TYPE":"0","RCS_SIZE":"LARGE","DECAY_DATE":null,"CLASSIFICATION_TYPE":"U","PERIOD":"95.592","APOAPSIS":"548.743","OBJECT_TYPE":"PAYLOAD","SITE":"AFETR","INCLINATION":"53.0544"}];
